[
    {
        "Altitude(m)": 604234.6256750353,
        "Argument of Periapsis(deg)": 0.0,
        "Eccentricity": 0.0,
        "Inclination(deg)": 60.0,
        "Latitude(deg)": 14.117329546062823,
        "Longitude(deg)": 106.72733416714277,
        "Mean Anomaly(deg)": 163.6364,
        "RAAN(deg)": 35.0,
        "Satellite Name": "Test1 164",
        "Satellite Number": 164,
        "Semi-Major Axis(m)": 6980739.136638005,
        "Time(s)": 0
    },
    {
        "Altitude(m)": 604223.4536456129,
        "Argument of Periapsis(deg)": 0.00010418945913296404,
        "Eccentricity": 0.0,
        "Inclination(deg)": 60.0,
        "Latitude(deg)": 13.582465780864322,
        "Longitude(deg)": 107.01424318622145,
        "Mean Anomaly(deg)": 164.25650614546183,
        "RAAN(deg)": 34.99957995086025,
        "Satellite Name": "Test1 164",
        "Satellite Number": 164,
        "Semi-Major Axis(m)": 6980739.136638005,
        "Time(s)": 10
    }
]